{"type": "FeatureCollection", "features": [{"type": "Feature", "properties": {"norad_id": 50032, "name": "COSMOS 1408 DEB", "group": "cosmos-1408-debris", "lat": -37.988090598672066, "lon": 45.055018393095985, "alt_km": 444.0392645232905, "timestamp": "2025-12-20T03:42:47.663549+00:00", "meta": {"OBJECT_NAME": "COSMOS 1408 DEB", "OBJECT_ID": "1982-092RU", "EPOCH": "2025-12-19T10:47:21.279840", "MEAN_MOTION": 15.45758238, "ECCENTRICITY": 0.0015906, "INCLINATION": 82.564, "RA_OF_ASC_NODE": 51.6321, "ARG_OF_PERICENTER": 183.3939, "MEAN_ANOMALY": 176.7205, "EPHEMERIS_TYPE": 0, "CLASSIFICATION_TYPE": "U", "NORAD_CAT_ID": 50032, "ELEMENT_SET_NO": 999, "REV_AT_EPOCH": 22707, "BSTAR": 8.1598e-05, "MEAN_MOTION_DOT": 4.006e-05, "MEAN_MOTION_DDOT": 0}, "tle": {"line1": "1 50032U 82092RU  25353.44955185  .00004006  00000+0  81598-4 0  9994", "line2": "2 50032  82.5640  51.6321 0015906 183.3939 176.7205 15.45758238227076"}}, "geometry": {"type": "Point", "coordinates": [45.055018393095985, -37.988090598672066]}}, {"type": "Feature", "properties": {"norad_id": 50058, "name": "COSMOS 1408 DEB", "group": "cosmos-1408-debris", "lat": -60.324897407399334, "lon": 48.418404405880345, "alt_km": 389.3775754314265, "timestamp": "2025-12-20T03:42:47.663569+00:00", "meta": {"OBJECT_NAME": "COSMOS 1408 DEB", "OBJECT_ID": "1982-092SW", "EPOCH": "2025-12-18T13:35:52.596672", "MEAN_MOTION": 15.6444692, "ECCENTRICITY": 0.00161966, "INCLINATION": 82.6131, "RA_OF_ASC_NODE": 63.2424, "ARG_OF_PERICENTER": 78.9589, "MEAN_ANOMALY": 281.3491, "EPHEMERIS_TYPE": 0, "CLASSIFICATION_TYPE": "U", "NORAD_CAT_ID": 50058, "ELEMENT_SET_NO": 999, "REV_AT_EPOCH": 22895, "BSTAR": 0.00028591151, "MEAN_MOTION_DOT": 0.00027692, "MEAN_MOTION_DDOT": 0}, "tle": {"line1": "1 50058U 82092SW  25352.56658098  .00027692  00000+0  28591-3 0  9996", "line2": "2 50058  82.6131  63.2424 0016196  78.9589 281.3491 15.64446920228956"}}, "geometry": {"type": "Point", "coordinates": [48.418404405880345, -60.324897407399334]}}, {"type": "Feature", "properties": {"norad_id": 50404, "name": "COSMOS 1408 DEB", "group": "cosmos-1408-debris", "lat": 22.29649917771509, "lon": 24.216276664396926, "alt_km": 408.8684811879275, "timestamp": "2025-12-20T03:42:47.663582+00:00", "meta": {"OBJECT_NAME": "COSMOS 1408 DEB", "OBJECT_ID": "1982-092ADS", "EPOCH": "2025-12-19T14:20:11.624064", "MEAN_MOTION": 15.1481285, "ECCENTRICITY": 0.0169261, "INCLINATION": 82.2053, "RA_OF_ASC_NODE": 208.0078, "ARG_OF_PERICENTER": 175.439, "MEAN_ANOMALY": 184.8437, "EPHEMERIS_TYPE": 0, "CLASSIFICATION_TYPE": "U", "NORAD_CAT_ID": 50404, "ELEMENT_SET_NO": 999, "REV_AT_EPOCH": 21297, "BSTAR": 0.0021779, "MEAN_MOTION_DOT": 0.0005852, "MEAN_MOTION_DDOT": 0}, "tle": {"line1": "1 50404U 82092ADS 25353.59735676  .00058520  00000+0  21779-2 0  9997", "line2": "2 50404  82.2053 208.0078 0169261 175.4390 184.8437 15.14812850212975"}}, "geometry": {"type": "Point", "coordinates": [24.216276664396926, 22.29649917771509]}}, {"type": "Feature", "properties": {"norad_id": 50621, "name": "COSMOS 1408 DEB", "group": "cosmos-1408-debris", "lat": 62.83857154721645, "lon": -128.27491923243113, "alt_km": 370.77234923586093, "timestamp": "2025-12-20T03:42:47.663594+00:00", "meta": {"OBJECT_NAME": "COSMOS 1408 DEB", "OBJECT_ID": "1982-092ALR", "EPOCH": "2025-12-19T11:47:33.765792", "MEAN_MOTION": 15.56997544, "ECCENTRICITY": 0.0029047, "INCLINATION": 82.5702, "RA_OF_ASC_NODE": 67.1509, "ARG_OF_PERICENTER": 127.9466, "MEAN_ANOMALY": 232.4421, "EPHEMERIS_TYPE": 0, "CLASSIFICATION_TYPE": "U", "NORAD_CAT_ID": 50621, "ELEMENT_SET_NO": 999, "REV_AT_EPOCH": 22355, "BSTAR": 0.00027768, "MEAN_MOTION_DOT": 0.00020487, "MEAN_MOTION_DDOT": 0}, "tle": {"line1": "1 50621U 82092ALR 25353.49136303  .00020487  00000+0  27768-3 0  9995", "line2": "2 50621  82.5702  67.1509 0029047 127.9466 232.4421 15.56997544223555"}}, "geometry": {"type": "Point", "coordinates": [-128.27491923243113, 62.83857154721645]}}]}